STARLINK-30993          
1 58489U 23186S   26068.02351268  .00005829  00000+0  22129-3 0  9995
2 58489  43.0032  67.4606 0001811 277.2444  82.8202 15.27561669125781
TROLL                   
1 62658U 25009BB  26068.22522958  .00013174  00000+0  48220-3 0  9994
2 62658  97.3932 150.7169 0001816  59.1850 300.9568 15.28164315118170
