[{"OBJECT_NAME":"STARLINK-30993","OBJECT_ID":"2023-186S","EPOCH":"2026-03-09T00:33:51.495552","MEAN_MOTION":15.27561669,"ECCENTRICITY":0.00018117,"INCLINATION":43.0032,"RA_OF_ASC_NODE":67.4606,"ARG_OF_PERICENTER":277.2444,"MEAN_ANOMALY":82.8202,"EPHEMERIS_TYPE":0,"CLASSIFICATION_TYPE":"U","NORAD_CAT_ID":58489,"ELEMENT_SET_NO":999,"REV_AT_EPOCH":12578,"BSTAR":0.0002212858,"MEAN_MOTION_DOT":5.829e-5,"MEAN_MOTION_DDOT":0},{"OBJECT_NAME":"TROLL","OBJECT_ID":"2025-009BB","EPOCH":"2026-03-09T05:24:19.835712","MEAN_MOTION":15.28164315,"ECCENTRICITY":0.00018165,"INCLINATION":97.3932,"RA_OF_ASC_NODE":150.7169,"ARG_OF_PERICENTER":59.185,"MEAN_ANOMALY":300.9568,"EPHEMERIS_TYPE":0,"CLASSIFICATION_TYPE":"U","NORAD_CAT_ID":62658,"ELEMENT_SET_NO":999,"REV_AT_EPOCH":11817,"BSTAR":0.00048220305,"MEAN_MOTION_DOT":0.00013174,"MEAN_MOTION_DDOT":0}]
